COSMOS 2508 (RODNIK-S *)
1 40921U 15050B   26155.79098657  .00000098  00000+0  63698-3 0  9998
2 40921  82.4878  85.8977 0015467  52.1642 308.0835 12.42913889485306
COSMOS 2509 (RODNIK-S *)
1 40922U 15050C   26155.81101750  .00000013  00000+0  18553-4 0  9999
2 40922  82.4886  85.9862 0015870  68.0504 292.2260 12.42883122485347
LINGQIAO VIDEO A        
1 40959U 15057B   26155.83179763  .00001140  00000+0  16689-3 0  9996
2 40959  97.6618 151.2437 0015723 314.3071  45.6850 14.77376622573587
LINGQIAO VIDEO B        
1 40960U 15057C   26155.87708566  .00000723  00000+0  10804-3 0  9990
2 40960  97.6583 152.4534 0015900 314.2108  45.7797 14.77481218573633
JILIN-1                 
1 40961U 15057D   26155.69302757  .00001085  00000+0  15633-3 0  9990
2 40961  97.6506 155.6804 0015660 307.7959  52.1834 14.78139463573769
FOX-1A (AO-85)          
1 40967U 15058D   26155.67519715  .00003428  00000+0  31024-3 0  9994
2 40967  64.7765 317.8655 0129787  61.5039 299.9071 14.90903375111704
SINOD-D 1               
1 40968U 15058E   26155.64324600  .00004714  00000+0  37940-3 0  9991
2 40968  64.7765 298.1925 0118358  58.1097 303.1468 14.95818251114786
ELEKTRO-L 2             
1 41105U 15074A   26155.06310514 -.00000107  00000+0  00000+0 0  9994
2 41105   6.6614  70.6831 0001329 280.5449 269.5208  1.00272364 38376
DAMPE                   
1 41173U 15078A   26155.81371999  .00001158  00000+0  41511-4 0  9993
2 41173  97.4557 161.2199 0013509 115.4432 244.8209 15.30751143582657
ORBCOMM FM114           
1 41179U 15081A   26152.97982418  .00000602  00000+0  16356-3 0  9992
2 41179  47.0052  73.9009 0001546 135.7645 224.3365 14.58838571555535
ORBCOMM FM110           
1 41182U 15081D   26153.99571428  .00000757  00000+0  19640-3 0  9994
2 41182  47.0024  68.5419 0003230 358.8742   1.2136 14.58854978555550
ORBCOMM FM112           
1 41184U 15081F   26154.92509755  .00000774  00000+0  19993-3 0  9994
2 41184  47.0002 332.9588 0002853 156.2959 203.8059 14.58883627557013
ORBCOMM FM113           
1 41185U 15081G   26152.50425721  .00000623  00000+0  16801-3 0  9995
2 41185  47.0021 344.7743 0001308 154.2176 205.8776 14.58839578556644
ORBCOMM FM108           
1 41187U 15081J   26152.94619103  .00000948  00000+0  23678-3 0  9994
2 41187  47.0049 254.2558 0002129 152.3962 207.7037 14.58851287557855
ORBCOMM FM117           
1 41188U 15081K   26153.73351514  .00000838  00000+0  21351-3 0  9996
2 41188  47.0011 249.1714 0002701 159.5688 200.5306 14.58849437558015
ORBCOMM FM116           
1 41189U 15081L   26154.94685002  .00000802  00000+0  20578-3 0  9994
2 41189  47.0035 333.2243 0001432 348.9329  11.1525 14.58862060557004
HORYU-4                 
1 41340U 16012D   26152.43486084  .00260233  00000+0  10081-2 0  9992
2 41340  30.9850 193.7734 0002292 171.6706 188.3991 15.85409012568302
ZIYUAN 3-02 (ZY 3-02)   
1 41556U 16033A   26155.89070561  .00006693  00000+0  30117-3 0  9997
2 41556  97.3833 231.8998 0011935 338.0973  21.9751 15.21358007556113
CARTOSAT-2C             
1 41599U 16040A   26155.34876501  .00003511  00000+0  16985-3 0  9993
2 41599  97.4487 215.5025 0009538 171.8850 188.2540 15.19210003551768
LAPAN-A3                
1 41603U 16040E   26155.85491032  .00003928  00000+0  12525-3 0  9995
2 41603  97.1488 152.4070 0012007  65.0358 295.2131 15.33024305552921
GAOFEN-3                
1 41727U 16049A   26155.87343767 -.00000029  00000+0  44230-5 0  9994
2 41727  98.4010 163.8452 0001140  97.9280 262.2039 14.42213469516872
CAS-2T & KS-1Q          
1 41847U 16066G   26155.63484800  .00001982  00000+0  28545-3 0  9991
2 41847  98.3817 231.5141 0342302 167.4688 193.5290 14.44651724502984
YUNHAI-1 01             
1 41857U 16068A   26155.87486162  .00000218  00000+0  96417-4 0  9998
2 41857  98.5829 166.9964 0006532  72.3594 287.8303 14.32696095500062
RESOURCESAT-2A          
1 41877U 16074A   26155.82429176  .00000362  00000+0  18518-3 0  9999
2 41877  98.7525 229.4291 0003267 106.5557 253.5979 14.21612926492549
TANSAT                  
1 41898U 16081A   26155.84351009  .00000469  00000+0  10821-3 0  9998
2 41898  98.5362 155.7364 0020518 351.4245   8.6600 14.59940298502824
